IRIDIUM 155             
1 43573U 18061E   24130.61086212  .00000463  00000+0  15821-3 0  9996
2 43573  86.4007  17.8808 0002133  80.5368 279.6069 14.34219594303197
IRIDIUM 154             
1 43574U 18061F   24130.38252430  .00000447  00000+0  15248-3 0  9993
2 43574  86.4011  18.0718 0002431  86.1818 273.9655 14.34215524303219
IRIDIUM 163             
1 43575U 18061G   24130.57280674  .00000352  00000+0  11849-3 0  9994
2 43575  86.4007  17.9321 0002245  82.8780 277.2671 14.34215106303218
IRIDIUM 156             
1 43576U 18061H   24130.61720341  .00000292  00000+0  97322-4 0  9994
2 43576  86.4009  17.9197 0002061  85.1973 274.9458 14.34218742303214
IRIDIUM 164             
1 43577U 18061J   24130.38887420  .00000468  00000+0  15997-3 0  9993
2 43577  86.4011  18.0434 0002191  93.3861 266.7586 14.34220840303229
IRIDIUM 159             
1 43578U 18061K   24130.63623259  .00000107  00000+0  31046-4 0  9994
2 43578  86.4008  17.8931 0002373  89.9648 270.1819 14.34218055303224
IRIDIUM 180             
1 43922U 19002A   24130.56596842  .00000018  00000+0 -48296-6 0  9991
2 43922  86.3934 314.8204 0002203  89.4936 270.6512 14.34218191278861
IRIDIUM 176             
1 43923U 19002B   24130.58025902  .00000654  00000+0  99764-4 0  9997
2 43923  86.6063 314.8392 0002513  93.6167 266.5337 14.72244828286162
IRIDIUM 168             
1 43924U 19002C   24130.55961749  .00000146  00000+0  45225-4 0  9992
2 43924  86.3936 314.8787 0002155  92.5861 267.5581 14.34216874278800
IRIDIUM 173             
1 43925U 19002D   24130.54693054  .00000149  00000+0  46069-4 0  9993
2 43925  86.3933 314.8044 0002223  90.3968 269.7483 14.34217440278786
IRIDIUM 169             
1 43926U 19002E   24130.59142070  .00000581  00000+0  18356-3 0  9993
2 43926  86.4236 346.4039 0003163  44.1502 315.9949 14.38612498279726
IRIDIUM 172             
1 43927U 19002F   24130.61035524  .00000151  00000+0  46974-4 0  9993
2 43927  86.3933 314.7834 0002186  92.7524 267.3922 14.34217908278800
IRIDIUM 175             
1 43928U 19002G   24130.50642525  .00001562  00000+0  24377-3 0  9996
2 43928  86.1470 290.1863 0002340  85.6351 274.5133 14.72245716286145
IRIDIUM 171             
1 43929U 19002H   24130.59133518  .00000084  00000+0  22816-4 0  9998
2 43929  86.3944 315.0129 0001963  94.7260 265.4160 14.34218403278798
IRIDIUM 170             
1 43930U 19002J   24130.58643725  .00000646  00000+0  98591-4 0  9992
2 43930  86.6063 314.8413 0002289  88.6287 271.5193 14.72244998286176
IRIDIUM 167             
1 43931U 19002K   24130.58498524  .00000147  00000+0  45341-4 0  9999
2 43931  86.3933 314.8097 0002116  90.6359 269.5079 14.34217146278792
IRIDIUM 181             
1 56726U 23068S   24130.56710095  .00000087  00000+0  19820-4 0  9996
2 56726  86.8668   6.6616 0002019  89.6612 270.4821 14.43588477 51561
IRIDIUM 177             
1 56727U 23068T   24130.62470565  .00002268  00000+0  29489-3 0  9993
2 56727  86.1964 333.6804 0002105 100.6161 259.5297 14.80254095 52670
IRIDIUM 174             
1 56728U 23068U   24130.61925909  .00002272  00000+0  29545-3 0  9998
2 56728  86.1971 333.7836 0002352  82.2083 277.9405 14.80248378 52679
IRIDIUM 178             
1 56729U 23068V   24130.61390107  .00002143  00000+0  27850-3 0  9999
2 56729  86.5793 349.4189 0002887  77.2182 282.9362 14.80252213 52679
IRIDIUM 179             
1 56730U 23068W   24130.60840137  .00001480  00000+0  19138-3 0  9996
2 56730  86.6811 353.0679 0002699  86.2187 273.9343 14.80220710 52670
